ONEWEB-0456             
1 51646U 22012AA  23331.71249628 -.00000108  00000+0 -34424-3 0  9990
2 51646  87.8918 221.4479 0001260  79.0128 281.1141 13.10379154 87221
ONEWEB-0457             
1 51647U 22012AB  23331.76611711  .00000741  00000+0  20853-2 0  9993
2 51647  87.8929 221.4421 0001983  70.2789 289.8552 13.10372387 87232
ONEWEB-0458             
1 51648U 22012AC  23331.78723459 -.00000030  00000+0 -12141-3 0  9994
2 51648  87.8925 221.4510 0001467  66.2548 293.8733 13.10365375 87193
ONEWEB-0461             
1 51649U 22012AD  23331.65546912  .00000034  00000+0  54370-4 0  9991
2 51649  87.9219 191.2417 0001734  77.7918 282.3408 13.17653156 91085
ONEWEB-0463             
1 51650U 22012AE  23331.63859213  .00000048  00000+0  91028-4 0  9998
2 51650  87.9228 191.2829 0001711  81.0765 279.0560 13.17652161 90869
ONEWEB-0464             
1 51651U 22012AF  23331.78397741  .00000198  00000+0  53081-3 0  9990
2 51651  87.8926 221.4403 0001138  80.8576 279.2681 13.10367446 87211
ONEWEB-0468             
1 51652U 22012AG  23331.71409884 -.00000212  00000+0 -64235-3 0  9998
2 51652  87.8927 221.4472 0001488  72.1910 287.9380 13.10370935 87188
ONEWEB-0473             
1 51653U 22012AH  23331.77586375  .00001065  00000+0  30141-2 0  9999
2 51653  87.8929 221.4382 0001881  87.8843 272.2500 13.10369620 87197
